{
  "type": "FeatureCollection",
  "features": [
    {
      "type": "Feature",
      "properties": {
        "norad_id": 41890,
        "name": "CYGFM07",
        "group": "weather",
        "lat": 31.664190020316525,
        "lon": 162.6173818154836,
        "alt_km": 409.3371711469499,
        "timestamp": "2025-12-09T04:51:47.151583+00:00",
        "meta_object_name": "CYGFM07",
        "meta_object_id": "2016-078G",
        "meta_epoch": "2025-12-08T14:27:41.221152",
        "meta_mean_motion": 15.49748278,
        "meta_eccentricity": 0.0009451,
        "meta_inclination": 34.948,
        "meta_ra_of_asc_node": 48.5742,
        "meta_arg_of_pericenter": 178.7665,
        "meta_mean_anomaly": 181.3082,
        "meta_ephemeris_type": 0,
        "meta_classification_type": "U",
        "meta_norad_cat_id": 41890,
        "meta_element_set_no": 999,
        "meta_rev_at_epoch": 49931,
        "meta_bstar": 0.00049171,
        "meta_mean_motion_dot": 0.00028275,
        "meta_mean_motion_ddot": 0,
        "tle_line1": "1 41890U 16078G   25342.60256043  .00028275  00000+0  49171-3 0  9994",
        "tle_line2": "2 41890  34.9480  48.5742 0009451 178.7665 181.3082 15.49748278499315"
      },
      "geometry": {
        "type": "Point",
        "coordinates": [
          162.6173818154836,
          31.664190020316525
        ]
      }
    },
    {
      "type": "Feature",
      "properties": {
        "norad_id": 41891,
        "name": "CYGFM03",
        "group": "weather",
        "lat": -26.16902537836419,
        "lon": 1.8285239465163543,
        "alt_km": 423.5873668030581,
        "timestamp": "2025-12-09T04:51:47.151593+00:00",
        "meta_object_name": "CYGFM03",
        "meta_object_id": "2016-078H",
        "meta_epoch": "2025-12-08T15:09:54.108000",
        "meta_mean_motion": 15.49651894,
        "meta_eccentricity": 0.0008731,
        "meta_inclination": 34.9436,
        "meta_ra_of_asc_node": 50.2977,
        "meta_arg_of_pericenter": 166.471,
        "meta_mean_anomaly": 193.6247,
        "meta_ephemeris_type": 0,
        "meta_classification_type": "U",
        "meta_norad_cat_id": 41891,
        "meta_element_set_no": 999,
        "meta_rev_at_epoch": 49929,
        "meta_bstar": 0.00050514,
        "meta_mean_motion_dot": 0.00028945,
        "meta_mean_motion_ddot": 0,
        "tle_line1": "1 41891U 16078H   25342.63187625  .00028945  00000+0  50514-3 0  9994",
        "tle_line2": "2 41891  34.9436  50.2977 0008731 166.4710 193.6247 15.49651894499295"
      },
      "geometry": {
        "type": "Point",
        "coordinates": [
          1.8285239465163543,
          -26.16902537836419
        ]
      }
    },
    {
      "type": "Feature",
      "properties": {
        "norad_id": 43010,
        "name": "FENGYUN 3D",
        "group": "weather",
        "lat": -58.85462027182258,
        "lon": -35.35631998321152,
        "alt_km": 833.6552340085673,
        "timestamp": "2025-12-09T04:51:47.151604+00:00",
        "meta_object_name": "FENGYUN 3D",
        "meta_object_id": "2017-072A",
        "meta_epoch": "2025-12-08T20:41:17.613888",
        "meta_mean_motion": 14.19681243,
        "meta_eccentricity": 7.54e-05,
        "meta_inclination": 98.989,
        "meta_ra_of_asc_node": 309.1135,
        "meta_arg_of_pericenter": 195.0846,
        "meta_mean_anomaly": 165.0307,
        "meta_ephemeris_type": 0,
        "meta_classification_type": "U",
        "meta_norad_cat_id": 43010,
        "meta_element_set_no": 999,
        "meta_rev_at_epoch": 41798,
        "meta_bstar": -5.3836e-05,
        "meta_mean_motion_dot": -1.6e-06,
        "meta_mean_motion_ddot": 0,
        "tle_line1": "1 43010U 17072A   25342.86200942 -.00000160  00000+0 -53836-4 0  9999",
        "tle_line2": "2 43010  98.9890 309.1135 0000754 195.0846 165.0307 14.19681243417984"
      },
      "geometry": {
        "type": "Point",
        "coordinates": [
          -35.35631998321152,
          -58.85462027182258
        ]
      }
    },
    {
      "type": "Feature",
      "properties": {
        "norad_id": 43013,
        "name": "NOAA 20 (JPSS-1)",
        "group": "weather",
        "lat": 80.1875216279654,
        "lon": 162.59336223621267,
        "alt_km": 818.0032472102675,
        "timestamp": "2025-12-09T04:51:47.151615+00:00",
        "meta_object_name": "NOAA 20 (JPSS-1)",
        "meta_object_id": "2017-073A",
        "meta_epoch": "2025-12-08T19:57:42.437088",
        "meta_mean_motion": 14.19524214,
        "meta_eccentricity": 0.0002133,
        "meta_inclination": 98.7593,
        "meta_ra_of_asc_node": 279.1714,
        "meta_arg_of_pericenter": 93.098,
        "meta_mean_anomaly": 267.044,
        "meta_ephemeris_type": 0,
        "meta_classification_type": "U",
        "meta_norad_cat_id": 43013,
        "meta_element_set_no": 999,
        "meta_rev_at_epoch": 41746,
        "meta_bstar": 0.00011451,
        "meta_mean_motion_dot": 1.97e-06,
        "meta_mean_motion_ddot": 0,
        "tle_line1": "1 43013U 17073A   25342.83174117  .00000197  00000+0  11451-3 0  9998",
        "tle_line2": "2 43013  98.7593 279.1714 0002133  93.0980 267.0440 14.19524214417461"
      },
      "geometry": {
        "type": "Point",
        "coordinates": [
          162.59336223621267,
          80.1875216279654
        ]
      }
    },
    {
      "type": "Feature",
      "properties": {
        "norad_id": 43226,
        "name": "GOES 17",
        "group": "weather",
        "lat": -0.18668974349463283,
        "lon": 61.66582452555158,
        "alt_km": 35798.34889176705,
        "timestamp": "2025-12-09T04:51:47.151627+00:00",
        "meta_object_name": "GOES 17",
        "meta_object_id": "2018-022A",
        "meta_epoch": "2025-12-08T14:53:22.356960",
        "meta_mean_motion": 1.00271693,
        "meta_eccentricity": 0.0003422,
        "meta_inclination": 0.4492,
        "meta_ra_of_asc_node": 89.1814,
        "meta_arg_of_pericenter": 185.3284,
        "meta_mean_anomaly": 296.9603,
        "meta_ephemeris_type": 0,
        "meta_classification_type": "U",
        "meta_norad_cat_id": 43226,
        "meta_element_set_no": 999,
        "meta_rev_at_epoch": 2851,
        "meta_bstar": 0,
        "meta_mean_motion_dot": -1.8e-06,
        "meta_mean_motion_ddot": 0,
        "tle_line1": "1 43226U 18022A   25342.62039765 -.00000180  00000+0  00000+0 0  9992",
        "tle_line2": "2 43226   0.4492  89.1814 0003422 185.3284 296.9603  1.00271693 28511"
      },
      "geometry": {
        "type": "Point",
        "coordinates": [
          61.66582452555158,
          -0.18668974349463283
        ]
      }
    },
    {
      "type": "Feature",
      "properties": {
        "norad_id": 43491,
        "name": "FENGYUN 2H",
        "group": "weather",
        "lat": 1.284133430646215,
        "lon": -129.4798716448305,
        "alt_km": 35774.10425176915,
        "timestamp": "2025-12-09T04:51:47.151643+00:00",
        "meta_object_name": "FENGYUN 2H",
        "meta_object_id": "2018-050A",
        "meta_epoch": "2025-12-08T20:49:49.317888",
        "meta_mean_motion": 1.00271046,
        "meta_eccentricity": 0.0002953,
        "meta_inclination": 2.5402,
        "meta_ra_of_asc_node": 81.3617,
        "meta_arg_of_pericenter": 164.781,
        "meta_mean_anomaly": 223.5417,
        "meta_ephemeris_type": 0,
        "meta_classification_type": "U",
        "meta_norad_cat_id": 43491,
        "meta_element_set_no": 999,
        "meta_rev_at_epoch": 2753,
        "meta_bstar": 0,
        "meta_mean_motion_dot": -1.28e-06,
        "meta_mean_motion_ddot": 0,
        "tle_line1": "1 43491U 18050A   25342.86793192 -.00000128  00000+0  00000+0 0  9996",
        "tle_line2": "2 43491   2.5402  81.3617 0002953 164.7810 223.5417  1.00271046 27530"
      },
      "geometry": {
        "type": "Point",
        "coordinates": [
          -129.4798716448305,
          1.284133430646215
        ]
      }
    },
    {
      "type": "Feature",
      "properties": {
        "norad_id": 43689,
        "name": "METOP-C",
        "group": "weather",
        "lat": -30.134850612961582,
        "lon": -144.0692386343815,
        "alt_km": 827.1859180809606,
        "timestamp": "2025-12-09T04:51:47.151655+00:00",
        "meta_object_name": "METOP-C",
        "meta_object_id": "2018-087A",
        "meta_epoch": "2025-12-08T19:25:47.504640",
        "meta_mean_motion": 14.21509801,
        "meta_eccentricity": 0.0001502,
        "meta_inclination": 98.6935,
        "meta_ra_of_asc_node": 40.6393,
        "meta_arg_of_pericenter": 49.0422,
        "meta_mean_anomaly": 311.0885,
        "meta_ephemeris_type": 0,
        "meta_classification_type": "U",
        "meta_norad_cat_id": 43689,
        "meta_element_set_no": 999,
        "meta_rev_at_epoch": 36778,
        "meta_bstar": 0.0001521,
        "meta_mean_motion_dot": 2.89e-06,
        "meta_mean_motion_ddot": 0,
        "tle_line1": "1 43689U 18087A   25342.80957760  .00000289  00000+0  15210-3 0  9992",
        "tle_line2": "2 43689  98.6935  40.6393 0001502  49.0422 311.0885 14.21509801367784"
      },
      "geometry": {
        "type": "Point",
        "coordinates": [
          -144.0692386343815,
          -30.134850612961582
        ]
      }
    }
  ]
}